0 IRIDIUM 21
1 25778U 99032B   13282.38278903  .00000029  00000-0  32109-5 0  4220
2 25778 086.3951 066.9239 0002697 134.8653 256.1327 14.34215655755078
0 IRIDIUM 21
1 25778U 99032B   13283.50121840  .00000014  00000-0 -22149-5 0  4231
2 25778 086.3953 066.4560 0002744 133.9903 268.0112 14.34216949755232
0 IRIDIUM 21
1 25778U 99032B   13284.41015704  .00000005  00000-0 -54083-5 0  4246
2 25778 086.3954 066.0759 0002797 133.1280 278.9232 14.34217368755360
0 IRIDIUM 21
1 25778U 99032B   13285.45842870 -.00000004  00000-0 -85062-5 0  4255
2 25778 086.3957 065.6374 0002877 131.8866 289.1626 14.34217574755512
0 IRIDIUM 21
1 25778U 99032B   13285.82793281 -.00000002  00000-0 -78331-5 0  4267
2 25778 086.3962 065.4834 0003011 131.0731 036.5911 14.34217063755560
0 IRIDIUM 21
1 25778U 99032B   13286.93651183 -.00000006  00000-0 -93436-5 0  4272
2 25778 086.3962 065.0191 0002929 131.6264 356.2237 14.34219164755721
0 IRIDIUM 21
1 25778U 99032B   13287.48270356 -.00000005  00000-0 -88680-5 0  4287
2 25778 086.3964 064.7908 0002938 131.2007 294.9589 14.34219226755802
0 IRIDIUM 21
1 25778U 99032B   13287.91767024 -.00000001  00000-0 -74058-5 0  4299
2 25778 086.3965 064.6089 0002965 130.7297 019.8259 14.34219226755861
0 IRIDIUM 21
1 25778U 99032B   13289.35771304  .00000011  00000-0 -30676-5 0  4305
2 25778 086.3967 064.0067 0002983 128.3391 252.7388 14.34220218756079
0 IRIDIUM 21
1 25778U 99032B   13289.35771304  .00000011  00000-0 -30676-5 0  4316
2 25778 086.3967 064.0067 0002983 128.3391 252.7388 14.34220218756079
0 IRIDIUM 21
1 25778U 99032B   13289.93416514  .00000014  00000-0 -22111-5 0  4328
2 25778 086.3969 063.7662 0003091 121.2551 354.2562 14.34213028756151
0 IRIDIUM 21
1 25778U 99032B   13290.34291329  .00000020  00000-0  46615-7 0  4334
2 25778 086.3968 063.5951 0003034 126.9387 297.6802 14.34214259756216
0 IRIDIUM 21
1 25778U 99032B   13290.84024134  .00000025  00000-0  16858-5 0  4347
2 25778 086.3971 063.3874 0003043 126.5944 344.1915 14.34214063756280
0 IRIDIUM 21
1 25778U 99032B   13291.81713638  .00000032  00000-0  44751-5 0  4351
2 25778 086.3971 062.9790 0003094 125.7595 345.7176 14.34214410756429
0 IRIDIUM 21
1 25778U 99032B   13292.86363292  .00000034  00000-0  52156-5 0  4365
2 25778 086.3971 062.5416 0003121 124.1187 347.1905 14.34215373756572
0 IRIDIUM 21
1 25778U 99032B   13293.34110759  .00000037  00000-0  59960-5 0  4371
2 25778 086.3971 062.3422 0003148 123.7002 291.3370 14.34215428756642
0 IRIDIUM 21
1 25778U 99032B   13294.38155980  .00000034  00000-0  50147-5 0  4387
2 25778 086.3969 061.9070 0003144 123.7827 259.9052 14.34217186756790
0 IRIDIUM 21
1 25778U 99032B   13295.50304972  .00000028  00000-0  30244-5 0  4399
2 25778 086.3971 061.4385 0003165 122.6801 287.8073 14.34217694756955
